NORAD_CAT_ID,OBJECT_NAME,OBJECT_TYPE,EPOCH,MEAN_MOTION,ECCENTRICITY,INCLINATION,RA_OF_ASC_NODE,ARG_OF_PERICENTER,MEAN_ANOMALY,BSTAR,MEAN_MOTION_DOT,MEAN_MOTION_DDOT,TLE_LINE0,TLE_LINE1,TLE_LINE2,SEMIMAJOR_AXIS,PERIOD,APOGEE,PERIGEE,DECAYED
47762,STARLINK-2180,PAYLOAD,2022-11-19 05:10:56,15.06398111,0.0002502,53.0546,242.7136,39.4235,320.6936,-6.9429e-06,-3.85e-06,0.0,0 STARLINK-2180,1 47762U 21017AS  22323.21592858 -.00000385  00000-0 -69429-5 0  9992,2 47762  53.0546 242.7136 0002502  39.4235 320.6936 15.06398111 95694,6925.354,95.592,548.952,545.487,0.0
47762,STARLINK-2180,PAYLOAD,2022-11-19 19:30:47,15.06398072,0.000239,53.0547,240.0326,38.5645,321.5514,-4.6559e-05,-9.75e-06,0.0,0 STARLINK-2180,1 47762U 21017AS  22323.81305093 -.00000975  00000-0 -46559-4 0  9994,2 47762  53.0547 240.0326 0002390  38.5645 321.5514 15.06398072 95785,6925.354,95.592,548.875,545.564,0.0
47762,STARLINK-2180,PAYLOAD,2022-11-20 03:28:29,15.06402957,0.0002485,53.0552,238.5432,38.425,321.6915,-4.8734e-05,-1.008e-05,0.0,0 STARLINK-2180,1 47762U 21017AS  22324.14478257 -.00001008  00000-0 -48734-4 0  9999,2 47762  53.0552 238.5432 0002485  38.4250 321.6915 15.06402957 95185,6925.339,95.592,548.925,545.484,0.0
47762,STARLINK-2180,PAYLOAD,2022-11-20 05:04:01,15.06391149,0.000228,53.0549,238.2453,40.701,319.4149,0.00012756,1.618e-05,0.0,0 STARLINK-2180,1 47762U 21017AS  22324.21113144  .00001618  00000-0  12756-3 0  9997,2 47762  53.0549 238.2453 0002280  40.7010 319.4149 15.06391149 95841,6925.376,95.593,548.82,545.6619999999998,0.0
47762,STARLINK-2180,PAYLOAD,2022-11-21 11:19:16,15.06396499,0.0002453,53.055,232.5859,38.5834,321.533,7.0572e-05,7.69e-06,0.0,0 STARLINK-2180,1 47762U 21017AS  22325.47172224  .00000769  00000-0  70572-4 0  9997,2 47762  53.0550 232.5859 0002453  38.5834 321.5330 15.06396499 96032,6925.359,95.592,548.923,545.525,0.0
47762,STARLINK-2180,PAYLOAD,2022-11-21 12:54:48,15.06404686,0.000227,53.0537,232.2883,38.274,321.841,-3.3092e-05,-7.75e-06,0.0,0 STARLINK-2180,1 47762U 21017AS  22325.53806557 -.00000775  00000-0 -33092-4 0  9992,2 47762  53.0537 232.2883 0002270  38.2740 321.8410 15.06404686 95399,6925.334,95.592,548.771,545.627,0.0
47762,STARLINK-2180,PAYLOAD,2022-11-21 20:52:30,15.06406035,0.0002281,53.0539,230.7993,38.5011,321.6140000000001,0.00011368,1.412e-05,0.0,0 STARLINK-2180,1 47762U 21017AS  22325.86979488  .00001412  00000-0  11368-3 0  9990,2 47762  53.0539 230.7993 0002281  38.5011 321.6140 15.06406035 96098,6925.33,95.592,548.775,545.615,0.0
47762,STARLINK-2180,PAYLOAD,2022-11-22 03:14:39,15.06401993,0.0002106,53.0548,229.6077,41.7894,318.3255,7.478e-05,8.32e-06,0.0,0 STARLINK-2180,1 47762U 21017AS  22326.13518499  .00000832  00000-0  74780-4 0  9995,2 47762  53.0548 229.6077 0002106  41.7894 318.3255 15.06401993 96132,6925.342,95.592,548.6659999999998,545.749,0.0
47762,STARLINK-2180,PAYLOAD,2022-11-22 20:45:36,15.063952,0.000213,53.0544,226.332,43.9085,316.2073,0.00012972,1.651e-05,0.0,0 STARLINK-2180,1 47762U 21017AS  22326.86500072  .00001651  00000-0  12972-3 0  9997,2 47762  53.0544 226.3320 0002130  43.9085 316.2073 15.06395200 96246,6925.363,95.592,548.703,545.753,0.0
47762,STARLINK-2180,PAYLOAD,2022-11-23 03:07:45,15.06395371,0.0002461,53.055,225.1424,35.4805,324.6347,4.9428e-05,4.54e-06,0.0,0 STARLINK-2180,1 47762U 21017AS  22327.13039180  .00000454  00000-0  49428-4 0  9992,2 47762  53.0550 225.1424 0002461  35.4805 324.6347 15.06395371 95636,6925.363,95.592,548.932,545.523,0.0
47762,STARLINK-2180,PAYLOAD,2022-11-24 03:00:51,15.06360489,0.0002212,53.055,220.6736,42.3765,317.7394,0.0005551,7.987e-05,0.0,0 STARLINK-2180,1 47762U 21017AS  22328.12559981  .00007987  00000-0  55510-3 0  9994,2 47762  53.0550 220.6736 0002212  42.3765 317.7394 15.06360489 95781,6925.47,95.595,548.867,545.803,0.0
47762,STARLINK-2180,PAYLOAD,2022-11-25 01:18:25,15.06387331,0.0002443,53.0556,216.503,41.5994,318.518,-3.7076e-06,-3.37e-06,0.0,0 STARLINK-2180,1 47762U 21017AS  22329.05445965 -.00000337  00000-0 -37076-5 0  9996,2 47762  53.0556 216.5030 0002443  41.5994 318.5180 15.06387331 95922,6925.387,95.593,548.944,545.561,0.0
47762,STARLINK-2180,PAYLOAD,2022-11-25 23:35:57,15.0640463,0.0002462,53.0551,212.3332,43.3654,316.7528,0.00011667,1.457e-05,0.0,0 STARLINK-2180,1 47762U 21017AS  22329.98330241  .00001457  00000-0  11667-3 0  9996,2 47762  53.0551 212.3332 0002462  43.3654 316.7528 15.06404630 96064,6925.334,95.592,548.904,545.494,0.0
47762,STARLINK-2180,PAYLOAD,2022-11-26 09:09:12,15.06396033,0.0002384,53.0549,210.5464,43.5581,316.5596,3.5556e-05,2.48e-06,0.0,0 STARLINK-2180,1 47762U 21017AS  22330.38139113  .00000248  00000-0  35556-4 0  9998,2 47762  53.0549 210.5464 0002384  43.5581 316.5596 15.06396033 96128,6925.361,95.592,548.877,545.575,0.0
47762,STARLINK-2180,PAYLOAD,2022-11-26 10:44:44,15.06394084,0.0002369,53.0537,210.2475,41.2137,318.903,6.3908e-05,6.7e-06,0.0,0 STARLINK-2180,1 47762U 21017AS  22330.44773850  .00000670  00000-0  63908-4 0  9998,2 47762  53.0537 210.2475 0002369  41.2137 318.9030 15.06394084 96784,6925.3669999999975,95.593,548.872,545.591,0.0
47762,STARLINK-2180,PAYLOAD,2022-11-26 18:42:26,15.06399495,0.0002307,53.0541,208.7593,43.2529,316.8641,7.343100000000001e-05,8.12e-06,0.0,0 STARLINK-2180,1 47762U 21017AS  22330.77946958  .00000812  00000-0  73431-4 0  9995,2 47762  53.0541 208.7593 0002307  43.2529 316.8641 15.06399495 96833,6925.35,95.592,548.813,545.617,0.0
47762,STARLINK-2180,PAYLOAD,2022-11-27 10:37:50,15.06394925,0.0002335,53.054,205.7814,43.6879,316.4295,3.6602e-06,-2.27e-06,0.0,0 STARLINK-2180,1 47762U 21017AS  22331.44294216 -.00000227  00000-0  36602-5 0  9994,2 47762  53.0540 205.7814 0002335  43.6879 316.4295 15.06394925 96933,6925.364000000001,95.592,548.846,545.612,0.0
47762,STARLINK-2180,PAYLOAD,2022-11-27 15:24:27,15.06399916,0.0002345,53.0534,204.8869,44.2922,315.8254,-5.7045e-05,-1.131e-05,0.0,0 STARLINK-2180,1 47762U 21017AS  22331.64198143 -.00001131  00000-0 -57045-4 0  9997,2 47762  53.0534 204.8869 0002345  44.2922 315.8254 15.06399916 96318,6925.349,95.592,548.8380000000002,545.59,0.0
47762,STARLINK-2180,PAYLOAD,2022-11-27 21:46:36,15.06400129,0.0002341,53.0536,203.6957,44.9702,315.1476,-4.818100000000001e-05,-9.99e-06,0.0,0 STARLINK-2180,1 47762U 21017AS  22331.90736808 -.00000999  00000-0 -48181-4 0  9994,2 47762  53.0536 203.6957 0002341  44.9702 315.1476 15.06400129 97009,6925.348000000001,95.592,548.8340000000002,545.592,0.0
47762,STARLINK-2180,PAYLOAD,2022-11-28 15:17:32,15.06394385,0.0002465,53.0539,200.4204,45.8903,314.2288,-2.5996e-05,-6.69e-06,0.0,0 STARLINK-2180,1 47762U 21017AS  22332.63718561 -.00000669  00000-0 -25996-4 0  9994,2 47762  53.0539 200.4204 0002465  45.8903 314.2288 15.06394385 97111,6925.366,95.592,548.938,545.524,0.0
47762,STARLINK-2180,PAYLOAD,2022-11-29 00:50:47,15.06386779,0.000235,53.0537,198.633,43.4194,316.698,-9.2847e-05,-1.664e-05,0.0,0 STARLINK-2180,1 47762U 21017AS  22333.03527479 -.00001664  00000-0 -92847-4 0  9990,2 47762  53.0537 198.6330 0002350  43.4194 316.6980 15.06386779 96523,6925.389,95.593,548.882,545.627,0.0
47762,STARLINK-2180,PAYLOAD,2022-11-29 18:21:44,15.06381009,0.0002267,53.0543,195.3564,45.4661,314.6512,6.522e-05,6.89e-06,0.0,0 STARLINK-2180,1 47762U 21017AS  22333.76509403  .00000689  00000-0  65220-4 0  9996,2 47762  53.0543 195.3564 0002267  45.4661 314.6512 15.06381009 97285,6925.406999999997,95.593,548.842,545.702,0.0
47762,STARLINK-2180,PAYLOAD,2022-11-29 21:32:48,15.06388433,0.0002318,53.0539,194.7608,45.909,314.2089,-9.7798e-06,-4.27e-06,0.0,0 STARLINK-2180,1 47762U 21017AS  22333.89778582 -.00000427  00000-0 -97798-5 0  9994,2 47762  53.0539 194.7608 0002318  45.9090 314.2089 15.06388433 96653,6925.384,95.593,548.854,545.644,0.0
47762,STARLINK-2180,PAYLOAD,2022-11-30 18:14:49,15.06389686,0.0002335,53.0538,190.8885,46.4162,313.702,9.9806e-05,1.205e-05,0.0,0 STARLINK-2180,1 47762U 21017AS  22334.76029407  .00001205  00000-0  99806-4 0  9990,2 47762  53.0538 190.8885 0002335  46.4162 313.7020 15.06389686 97438,6925.38,95.593,548.862,545.628,0.0
47762,STARLINK-2180,PAYLOAD,2022-12-01 06:59:08,15.06394551,0.0002376,53.0537,188.5055,47.78100000000001,312.338,0.00016042,2.108e-05,0.0,0 STARLINK-2180,1 47762U 21017AS  22335.29106654  .00002108  00000-0  16042-3 0  9992,2 47762  53.0537 188.5055 0002376  47.7810 312.3380 15.06394551 97519,6925.365,95.592,548.876,545.585,0.0
47762,STARLINK-2180,PAYLOAD,2022-12-01 16:32:22,15.06401863,0.0002398,53.0536,186.7182,48.2548,311.8645,0.00012886,1.638e-05,0.0,0 STARLINK-2180,1 47762U 21017AS  22335.68914463  .00001638  00000-0  12886-3 0  9999,2 47762  53.0536 186.7182 0002398  48.2548 311.8645 15.06401863 96924,6925.343000000003,95.592,548.869,545.547,0.0
47762,STARLINK-2180,PAYLOAD,2022-12-02 11:38:50,15.06405506,0.0002478,53.0537,183.144,50.0813,310.0393,5.6637e-05,5.62e-06,0.0,0 STARLINK-2180,1 47762U 21017AS  22336.48530549  .00000562  00000-0  56637-4 0  9995,2 47762  53.0537 183.1440 0002478  50.0813 310.0393 15.06405506 97692,6925.331999999999,95.592,548.913,545.481,0.0
47762,STARLINK-2180,PAYLOAD,2022-12-02 16:25:26,15.06419091,0.0002158,53.0529,182.2467,76.5164,283.6065,0.00013067,1.666e-05,0.0,0 STARLINK-2180,1 47762U 21017AS  22336.68433190  .00001666  00000-0  13067-3 0  9996,2 47762  53.0529 182.2467 0002158  76.5164 283.6065 15.06419091 97076,6925.29,95.591,548.65,545.661,0.0
47762,STARLINK-2180,PAYLOAD,2022-12-02 22:47:37,15.06397516,0.0002491,53.0534,181.0592,53.2005,306.9212,-2.3928e-05,-6.38e-06,0.0,0 STARLINK-2180,1 47762U 21017AS  22336.94973736 -.00000638  00000-0 -23928-4 0  9998,2 47762  53.0534 181.0592 0002491  53.2005 306.9212 15.06397516 97119,6925.356,95.592,548.946,545.496,0.0
47762,STARLINK-2180,PAYLOAD,2022-12-03 06:45:19,15.06398481,0.0002639,53.0534,179.57,52.3309,307.7919,-2.297800000000001e-05,-6.24e-06,0.0,0 STARLINK-2180,1 47762U 21017AS  22337.28147098 -.00000624  00000-0 -22978-4 0  9999,2 47762  53.0534 179.5700 0002639  52.3309 307.7919 15.06398481 97815,6925.353,95.592,549.0459999999998,545.391,0.0
